ONEWEB-0674             
1 55833U 23029AP  24191.74188104  .00000206  00000+0  51992-3 0  9996
2 55833  87.8951  70.4724 0002410  82.6857 277.4546 13.14501297 66472
ONEWEB-0675             
1 55834U 23029AQ  24191.76073914  .00000003  00000+0 -24726-4 0  9993
2 55834  87.9148  85.7494 0001506  72.9639 287.1658 13.19727579 65615
ONEWEB-0720             
1 55835U 23029AR  24191.75283198 -.00000290  00000+0 -75785-3 0  9999
2 55835  87.9148  85.7513 0002169  64.9584 295.1773 13.19725604 65539
ONEWEB-0537             
1 56046U 23043A   24191.89088733 -.00000009  00000+0 -57745-4 0  9998
2 56046  87.9101   9.5741 0001534  95.6848 264.4458 13.16593223 65894
ONEWEB-0538             
1 56047U 23043B   24191.88454938  .00000032  00000+0  49196-4 0  9997
2 56047  87.9102   9.5953 0001617  83.9053 276.2262 13.16596375 65908
ONEWEB-0546             
1 56048U 23043C   24191.87188629  .00000086  00000+0  19056-3 0  9998
2 56048  87.9104   9.5620 0001574 119.8894 240.2393 13.16596302 65890
ONEWEB-0547             
1 56049U 23043D   24191.94218496  .00000061  00000+0  11630-3 0  9996
2 56049  87.9277  24.7709 0001659  81.9270 278.2052 13.21824321 64792
ONEWEB-0548             
1 56050U 23043E   24191.89721819 -.00000027  00000+0 -10549-3 0  9992
2 56050  87.9103   9.6001 0002419  93.5258 266.6149 13.16592875 65899
